ZHOU ENLAI              
1 43156U 18008B   21054.22524399  .00001162  00000-0  71770-4 0  9990
2 43156  97.4214 122.4035 0014524  10.1406  67.7358 15.11720939170757
QUANTUTONG 1            
1 43158U 18008D   21054.11446943  .00001325  00000-0  82534-4 0  9999
2 43158  97.4159 121.0301 0013780   8.9977   7.8585 15.11191458170675
S-NET D                 
1 43186U 18014G   21053.79110969 -.00000138  00000-0 -69464-5 0  9997
2 43186  97.6848 323.3993 0012199 103.7104 256.5476 14.96972929167148
S-NET B                 
1 43187U 18014H   21053.72414758 -.00000146  00000-0 -76645-5 0  9992
2 43187  97.6845 323.3040 0012189 103.8363 256.4216 14.96972463167139
S-NET A                 
1 43188U 18014J   21054.12516335 -.00000110  00000-0 -45699-5 0  9998
2 43188  97.6848 323.7378 0012192 102.8179 257.4406 14.96971248167197
S-NET C                 
1 43189U 18014K   21053.79143386 -.00000125  00000-0 -58581-5 0  9993
2 43189  97.6844 323.3635 0012191 103.7224 256.5355 14.96971270165697
FENGMANIU-1 (FMN-1)     
1 43192U 18015A   21054.12268580  .00004186  00000-0  15999-3 0  9993
2 43192  97.4691 189.1330 0013213 286.3084 247.3571 15.27101589170133
SHAONIAN XING           
1 43199U 18015H   21054.11705622  .00003006  00000-0  11648-3 0  9999
2 43199  97.4484 186.6852 0014400 297.5471 235.7041 15.26863154170195
LUOJIA-1 01             
1 43485U 18048B   21054.03109141  .00000186  00000-0  33857-4 0  9991
2 43485  97.9690 137.2294 0010134 310.7451  49.2883 14.76794866147109
RADSAT-G                
1 43553U 98067PB  21053.80130515  .00154799  20113-4  45889-3 0  9997
2 43553  51.6359  85.9457 0005364   6.5425 353.5651 15.92208186149654
SURFSAT                 
1 43614U 18070B   21053.84424495  .00005787  00000-0  13989-3 0  9995
2 43614  93.0233 258.3791 0017206  88.7194 271.6032 15.41021021137018
CP7 (DAVE)              
1 43615U 18070C   21053.84151256  .00005543  00000-0  13508-3 0  9995
2 43615  93.0236 258.3482 0017403  88.6000 271.7249 15.40773461137004
ELFIN-B                 
1 43616U 18070D   21053.79700877  .00008727  00000-0  19709-3 0  9995
2 43616  93.0195 258.4015 0017329  88.0625 272.2616 15.43038908137081
ELFIN-A                 
1 43617U 18070E   21053.59292665  .00009190  00000-0  20524-3 0  9997
2 43617  93.0248 259.0541 0016674  86.0308 274.2854 15.43381652137061
1998-067PP              
1 43639U 98067PP  21054.11854676  .00317512  53399-4  61774-3 0  9995
2 43639  51.6245  88.4480 0005209  17.2469 342.8716 15.99725214136373
STARS-ME                
1 43640U 98067PQ  21054.17318186  .00059683  00000-0  32975-3 0  9994
2 43640  51.6311 107.0241 0002803 311.5554  48.5206 15.79031924136138
CZ-4B R/B               
1 43656U 18081B   21053.69483598  .00000003  00000-0  17691-4 0  9996
2 43656  99.3638 145.1297 0209449  82.9987 279.4964 14.30455460121764
CUBEBEL-1 (BSUSAT-1)    
1 43666U 18083E   21054.22438848  .00001756  00000-0  87169-4 0  9990
2 43666  97.4684  83.9834 0014234 200.5769 223.8024 15.18936168128676
CHANGSHAGAOXIN (TY 4-01)
1 43669U 18083H   21054.12657503  .00001405  00000-0  72750-4 0  9994
2 43669  97.4585  81.3113 0010396 193.2836 238.5020 15.17811070128547
TEN-KOH                 
1 43677U 18084G   21053.78784070  .00000167  00000-0  22972-4 0  9990
2 43677  97.9038 176.6547 0017155  56.1671 304.1176 14.90404382126226
DIWATA-2B               
1 43678U 18084H   21054.08667044 -.00000248  00000-0 -18930-4 0  9997
2 43678  97.9071 178.9026 0011441  71.7303 288.5166 14.91705898126386
STARS-AO                
1 43679U 18084J   21053.78443174  .00000291  00000-0  34101-4 0  9994
2 43679  97.9106 179.6360 0010519  79.5933 280.6471 14.92409188126381
AUTCUBE 2               
1 43681U 18084K   21053.78219838  .00000211  00000-0  26464-4 0  9990
2 43681  97.9072 178.8669 0010826  73.7920 286.4489 14.92003005126316
IRVINE01                
1 43693U 18088D   21053.86166405  .00005405  00000-0  21695-3 0  9997
2 43693  85.0318 271.0647 0019135  88.3658 271.9777 15.24548135126979
ES'HAIL 2               
1 43700U 18090A   21054.14989843  .00000145  00000-0  00000+0 0  9999
2 43700   0.0264 250.8020 0002233 111.1056 231.1009  1.00272324  8465
FACSAT-1                
1 43721U 18096C   21054.22723884  .00002702  00000-0  10056-3 0  9995
2 43721  97.3950 132.2382 0015823 320.6821 114.0774 15.28260800124670
CENTAURI-2              
1 43722U 18096D   21053.93308557  .00004336  00000-0  15550-3 0  9998
2 43722  97.3974 132.5304 0015621 320.2259  39.7835 15.29143497124653
3CAT-1                  
1 43728U 18096K   21054.15736420  .00003784  00000-0  13483-3 0  9992
2 43728  97.3978 133.2574 0015493 324.2660  91.6920 15.29445372124713
INNOSAT-2               
1 43738U 18096V   21054.16479390  .00005425  00000-0  17564-3 0  9992
2 43738  97.4012 135.8910 0020553 320.9806  95.8611 15.32258766124899
REAKTOR HELLO WORLD     
1 43743U 18096AA  21053.69206376  .00002613  00000-0  97296-4 0  9994
2 43743  97.3962 132.0721 0016364 327.7625  32.2613 15.28272360124603
ELYSIUM STAR 2 & LFF    
1 43760U 18099C   21054.03337228  .00001581  00000-0  14548-3 0  9997
2 43760  97.6828 127.5583 0015391  74.4331 285.8559 14.96085091121407
2018-099D               
1 43761U 18099D   21053.64857478 -.00000488  00000-0 -39143-4 0  9994
2 43761  97.6792 126.7286 0015973  76.5311 283.7680 14.95237786121317
AISTECHSAT 2            
1 43768U 18099L   21053.64074833 -.00000035  00000-0  19456-5 0  9990
2 43768  97.6756 125.7518 0012855  75.4848 284.7797 14.94822437120995
FOX-1CLIFF (AO-95)      
1 43770U 18099N   21054.15199436  .00000834  00000-0  80923-4 0  9999
2 43770  97.6780 126.8054 0016105  81.5526 278.7519 14.95205001121376
RANGE-A                 
1 43772U 18099Q   21053.73376070  .00000888  00000-0  85221-4 0  9990
2 43772  97.6856 127.2209 0015413  71.4740 288.8154 14.95466226121315
RANGE-B                 
1 43773U 18099R   21054.15030234  .00000675  00000-0  66609-4 0  9990
2 43773  97.6717 126.2364 0014988  70.0056 290.2777 14.95128456121367
2018-099T               
1 43775U 18099T   21054.15723647  .00000452  00000-0  46236-4 0  9996
2 43775  97.6783 127.0187 0016151  73.2705 287.0287 14.95210254121362
MOVE-II                 
1 43780U 18099Y   21054.15710357  .00001097  00000-0  10339-3 0  9996
2 43780  97.6794 127.2223 0015010  79.1379 281.1530 14.95740632121384
SNUSAT-2                
1 43782U 18099AA  21053.86889999  .00000690  00000-0  67402-4 0  9996
2 43782  97.6775 126.8295 0014082  70.4850 289.7891 14.95451813121345
SNUGLITE                
1 43784U 18099AC  21053.75271599  .00000848  00000-0  81439-4 0  9998
2 43784  97.6744 126.4725 0016624  77.2409 283.0669 14.95570419121340
ITASAT 1                
1 43786U 18099AE  21053.82660340  .00000530  00000-0  52915-4 0  9999
2 43786  97.6799 127.0849 0016712  76.1143 284.1936 14.95515780121357
KAZSCISAT-1             
1 43787U 18099AF  21053.71669973  .00000439  00000-0  44261-4 0  9992
2 43787  97.6707 126.2124 0015373  74.2146 286.0769 14.95923729121359
EAGLET-I                
1 43790U 18099AJ  21053.82199013  .00000704  00000-0  67957-4 0  9993
2 43790  97.6790 127.4452 0015088  80.0885 280.2039 14.95893291121075
ESEO                    
1 43792U 18099AL  21053.85729734  .00000026  00000-0  74899-5 0  9998
2 43792  97.6752 127.1575 0014656  77.0673 283.2184 14.95688673121136
CSIM-FD                 
1 43793U 18099AM  21053.80812329  .00001238  00000-0  11418-3 0  9999
2 43793  97.6773 127.3231 0014305  75.7165 284.5644 14.96391061121120
ASTROCAST 0.1           
1 43798U 18099AS  21053.71892731  .00000145  00000-0  17977-4 0  9992
2 43798  97.6788 127.5015 0013519  61.7298 298.5286 14.96038873121363
JY1SAT (JO-97)          
1 43803U 18099AX  21053.74153029  .00000984  00000-0  93241-4 0  9991
2 43803  97.6757 126.7689 0016586  76.9754 283.3318 14.95733968121348
SUOMI-100               
1 43804U 18099AY  21053.74502832  .00000992  00000-0  94018-4 0  9994
2 43804  97.6755 126.7475 0016697  76.9652 283.3432 14.95712227121353
AL-FARABI 2             
1 43805U 18099AZ  21054.02920825  .00001494  00000-0  13829-3 0  9991
2 43805  97.6768 127.1944 0016871  77.3340 282.9759 14.95902946121409
CENTAURI-1              
1 43809U 18099BD  21054.15915267  .00000528  00000-0  52445-4 0  9998
2 43809  97.6770 127.4357 0016779  76.1953 284.1134 14.95743308121115
PW-SAT2                 
1 43814U 18099BJ  21053.89715048  .21084207  26555-5  15008-1 0  9997
2 43814  97.7608 151.2852 0016975 309.1095  50.8680 16.15704863121921
CHOMPTT                 
1 43855U 18104G   21053.86118355  .00001995  00000-0  81389-4 0  9994
2 43855  85.0394   9.4366 0016046 201.9832 158.0725 15.23612090121647
DAVINCI                 
1 43857U 18104J   21054.14328006  .00006305  00000-0  25483-3 0  9996
2 43857  85.0345   9.2443 0012807 227.7951 132.2206 15.24453326121664
UWE-4                   
1 43880U 18111E   21053.73514758  .00000388  00000-0  38976-4 0  9992
2 43880  97.6937 323.3908 0013251 124.7649 235.4823 14.96730522117925
ZACUBE-2                
1 43907U 18111AH  21054.03582856  .00000963  00000-0  41237-4 0  9993
2 43907  97.2448 311.9506 0020991 343.0138 131.0235 15.24972429120190
MICRODRAGON             
1 43935U 19003D   21053.88378145  .00001457  00000-0  64502-4 0  9990
2 43935  97.1982 100.1641 0019648  72.8641 287.4746 15.23010816116666
AOBA VELOX-IV           
1 43940U 19003J   21053.87630688  .00005209  00000-0  20171-3 0  9990
2 43940  97.1959 102.2435 0024519  58.8969 301.4672 15.26313987116821
M6P                     
1 44109U 19018AF  21053.64089147  .00004250  00000-0  13210-3 0  9998
2 44109  97.4373 130.3141 0057787  43.4747 317.1029 15.32257809105875
SPOOQY-1                
1 44332U 98067QH  21053.64655961  .00036976  00000-0  34624-3 0  9992
2 44332  51.6347 153.3433 0003593 237.1307 122.9343 15.66851045 96043
